[{"OBJECT_NAME":"STARLINK-6099","OBJECT_ID":"2023-090H","EPOCH":"2026-03-08T23:30:48.382560","MEAN_MOTION":15.02526592,"ECCENTRICITY":9.167e-5,"INCLINATION":43.0031,"RA_OF_ASC_NODE":278.7605,"ARG_OF_PERICENTER":257.9741,"MEAN_ANOMALY":102.0999,"EPHEMERIS_TYPE":0,"CLASSIFICATION_TYPE":"U","NORAD_CAT_ID":57108,"ELEMENT_SET_NO":999,"REV_AT_EPOCH":15030,"BSTAR":-3.03032e-5,"MEAN_MOTION_DOT":-6.13e-6,"MEAN_MOTION_DDOT":0},{"OBJECT_NAME":"FENGYUN 1C DEB","OBJECT_ID":"1999-025CRT","EPOCH":"2026-03-08T05:25:55.615296","MEAN_MOTION":14.72591337,"ECCENTRICITY":0.01689255,"INCLINATION":99.0682,"RA_OF_ASC_NODE":62.2268,"ARG_OF_PERICENTER":58.082,"MEAN_ANOMALY":303.669,"EPHEMERIS_TYPE":0,"CLASSIFICATION_TYPE":"U","NORAD_CAT_ID":32125,"ELEMENT_SET_NO":999,"REV_AT_EPOCH":71780,"BSTAR":0.003714293,"MEAN_MOTION_DOT":0.00029682,"MEAN_MOTION_DDOT":0}]
